CELESTIS-17 & SHERPA-FX1
1 47486U 21006CB  26068.64311433  .00007207  00000+0  24301-3 0  9993
2 47486  97.2397 112.1052 0006630 178.1385 181.9882 15.30994801284065
STARLINK-34075          
1 63917U 25095AD  26068.31964944  .00028097  00000+0  10261-2 0  9996
2 63917  42.9947 178.0880 0002340 297.3480  62.7133 15.27595139 47726
